#aV2024  8 28  0  0  0.00000000     288 DD+AD WGS84 FIT  NGA
## 2329 259200.00000000   300.00000000 60550 0.0000000000000
+   31     2  3  4  5  6  7  8  9 10 11 12 13 14 15 16 17 18
+         19 20 21 22 23 24 25 26 27 28 29 30 31 32  0  0  0
+          0  0  0  0  0  0  0  0  0  0  0  0  0  0  0  0  0
+          0  0  0  0  0  0  0  0  0  0  0  0  0  0  0  0  0
+          0  0  0  0  0  0  0  0  0  0  0  0  0  0  0  0  0
++         2  2  2  2  2  2  2  2  2  2  2  2  2  2  2  2  2
++         2  2  2  2  2  2  2  2  2  2  2  2  2  2  0  0  0
++         0  0  0  0  0  0  0  0  0  0  0  0  0  0  0  0  0
++         0  0  0  0  0  0  0  0  0  0  0  0  0  0  0  0  0
++         0  0  0  0  0  0  0  0  0  0  0  0  0  0  0  0  0
%c cc cc ccc ccc cccc cccc cccc cccc ccccc ccccc ccccc ccccc
%c cc cc ccc ccc cccc cccc cccc cccc ccccc ccccc ccccc ccccc
%f  0.0000000  0.000000000  0.00000000000  0.000000000000000
%f  0.0000000  0.000000000  0.00000000000  0.000000000000000
%i    0    0    0    0      0      0      0      0         0
%i    0    0    0    0      0      0      0      0         0
/*      NGA, ST. LOUIS,MO.                                  
/*   EPHEMERIS COMPUTED FROM 2 DAYS OF DATA                 
/*   EPOCHA v9 SMOOTHER                                     
/*   G2296 IERS2010 SATIGS SATAPC                           
*  2024  8 28 20 45  0.00000000
P  2 -17908.398446  -5387.284688  19456.287599   -369.588188                    
V  2 -10008.936082 -21371.541354 -15193.655868      0.077831                    
P  3 -19501.087167   7979.955849  15933.039054    517.561800                    
V  3  11342.048095 -17186.667640  22364.304419      0.142361                    
P  4 -25992.080466   -251.913963  -5802.957722    433.100424                    
V  4  -6851.278764  -3624.953589  30633.037896      0.073001                    
P  5  12790.178654   7950.041050 -22063.799561   -184.746049                    
V  5 -15630.657946  22666.965171   -831.475606     -0.012694                    
P  6   3968.078701  24854.559122   8377.824895     68.306065                    
V  6  -5590.752282  -9126.754913  30055.153843     -0.251296                    
P  7 -10267.863637  12889.652633 -20206.090602    -45.050369                    
V  7 -11554.556721 -24435.720223  -9921.978465      0.052632                    
P  8 -25260.099135  -6683.857641  -6022.084161    332.783663                    
V  8   7632.612408  -1905.000904 -30047.574691      0.138485                    
P  9 -20219.455032   8520.873792 -15097.826436    333.213426                    
V  9 -18679.909674  -3972.107579  22856.037717      0.157803                    
P 10   8231.471590 -22660.661277  10965.898107   -107.777615                    
V 10   9898.729266  -9656.976380 -28242.764215     -0.116249                    
P 11  12604.934824  22631.645934  -5994.973861   -727.803922                    
V 11    256.220954   8023.952538  30613.659569     -0.049631                    
P 12  19429.803197  -3656.548812  17433.934498   -533.884013                    
V 12 -13679.751232  18210.664739  18810.081586     -0.028791                    
P 13  19576.813773  13865.795671 -11881.434442    673.439472                    
V 13 -14589.251831  -2160.286110 -26838.451585      0.021292                    
P 14 -11579.069977  22691.068787   7138.755304    482.971639                    
V 14  -8270.025683   5012.191367 -29749.342430      0.086457                    
P 15  25717.965891   3958.107426  -6279.569483    197.874527                    
V 15  -7223.565164   3399.896569 -29741.963624      0.043511                    
P 16  -9273.265843 -12475.225089 -21835.276009   -196.043437                    
V 16  18549.013669 -19593.399134   3808.156947      0.103003                    
P 17  -5509.272978  14410.875680  22054.043187    642.619191                    
V 17 -26449.724873  -5244.588071  -3077.868605     -0.103174                    
P 18   9693.310295 -13542.269671 -20617.182275   -649.685295                    
V 18  10492.399041  24068.717199 -11077.729418     -0.027323                    
P 19   4775.146034  15834.054946  20716.958103    530.757536                    
V 19 -25973.077241  -5531.884680   9726.875318      0.050491                    
P 20   6008.041268  17627.180337 -18925.989876    371.205696                    
V 20 -12272.542486  20836.595130  15307.049545     -0.003823                    
P 21 -18735.340078 -11637.057828  15932.064265    102.769896                    
V 21  -7904.374409 -17392.311229 -21554.372117     -0.006486                    
P 22  -5922.299690  21710.223572  14751.368271    -56.172539                    
V 22 -13427.363772  11976.672228 -23394.866971     -0.039736                    
P 23  16361.193445 -20697.738074  -1710.645425    307.739895                    
V 23    633.147227   3188.115694 -32228.694622      0.085429                    
P 24  18534.657509   7752.674869  17132.514514   -486.726610                    
V 24   8875.699909  20820.003614 -18144.006974     -0.002318                    
P 25  19420.378238 -15068.867528   9381.585989    499.489048                    
V 25  -4868.933941  11929.272881  28481.138754      0.001347                    
P 26   -371.142908 -21275.268477 -15818.930268     90.989372                    
V 26  13113.318808 -15405.627495  20991.967423     -0.080195                    
P 27 -18107.570454 -12872.437256 -15156.206341    -33.511514                    
V 27  18631.310633    573.477057 -22780.151282     -0.003229                    
P 28  -3107.850937 -24267.179480  10325.760279   -390.346682                    
V 28   7671.419240  10934.439831  27977.803937     -0.144619                    
P 29  22909.217398  -4267.206473 -12906.845314   -581.322229                    
V 29  15515.210654   5211.279598  25781.198396      0.023188                    
P 30  -2696.738797  21713.085355 -14717.511332   -331.628423                    
V 30  -9973.200758 -16567.501292 -22648.659616      0.069443                    
P 31 -10616.028814 -24077.159254  -1595.741238   -225.364249                    
V 31   2460.772211  -2872.474632  31782.027081      0.004230                    
P 32   2895.162228 -15018.381155  21922.959437   -602.141215                    
V 32  27107.586294   3453.646745  -1423.273602      0.031844                    
EOF
